[
  {
    "OBJECT_NAME": "STARLINK-4694",
    "OBJECT_ID": "22107J",
    "EPOCH": "2025-11-11T05:37:12.735552",
    "MEAN_MOTION": 15.08886378,
    "ECCENTRICITY": 9.81e-05,
    "INCLINATION": 53.2196,
    "RA_OF_ASC_NODE": 40.7498,
    "ARG_OF_PERICENTER": 84.4745,
    "MEAN_ANOMALY": 275.6359,
    "EPHEMERIS_TYPE": 0,
    "CLASSIFICATION_TYPE": "U",
    "NORAD_CAT_ID": 53708,
    "ELEMENT_SET_NO": 999,
    "REV_AT_EPOCH": 17718,
    "BSTAR": 0.0,
    "MEAN_MOTION_DOT": -8.985e-05,
    "MEAN_MOTION_DDOT": 0.0,
    "TLE_LINE1": "1 53708U 22107J   25315.23417518 -.00008985  00000+0 -54648-3 0  9993",
    "TLE_LINE2": "2 53708  53.2196  40.7498 0000981  84.4745 275.6359 15.08886378177188",
    "COMMENT": "Grouped by shell and plane from TLE"
  },
  {
    "OBJECT_NAME": "STARLINK-5432",
    "OBJECT_ID": "22177AE",
    "EPOCH": "2025-11-11T07:22:28.121952",
    "MEAN_MOTION": 15.0253402,
    "ECCENTRICITY": 0.0002418,
    "INCLINATION": 43.0045,
    "RA_OF_ASC_NODE": 43.9092,
    "ARG_OF_PERICENTER": 267.1734,
    "MEAN_ANOMALY": 92.8831,
    "EPHEMERIS_TYPE": 0,
    "CLASSIFICATION_TYPE": "U",
    "NORAD_CAT_ID": 54848,
    "ELEMENT_SET_NO": 999,
    "REV_AT_EPOCH": 15929,
    "BSTAR": 0.0,
    "MEAN_MOTION_DOT": -1.037e-05,
    "MEAN_MOTION_DDOT": 0.0,
    "TLE_LINE1": "1 54848U 22177AE  25315.30726993 -.00001037  00000+0 -61691-4 0  9992",
    "TLE_LINE2": "2 54848  43.0045  43.9092 0002418 267.1734  92.8831 15.02534020159298",
    "COMMENT": "Grouped by shell and plane from TLE"
  },
  {
    "OBJECT_NAME": "STARLINK-5087",
    "OBJECT_ID": "22177AG",
    "EPOCH": "2025-11-11T07:16:04.014336",
    "MEAN_MOTION": 15.0255018,
    "ECCENTRICITY": 0.0001448,
    "INCLINATION": 43.0044,
    "RA_OF_ASC_NODE": 43.8739,
    "ARG_OF_PERICENTER": 300.8975,
    "MEAN_ANOMALY": 59.1724,
    "EPHEMERIS_TYPE": 0,
    "CLASSIFICATION_TYPE": "U",
    "NORAD_CAT_ID": 54850,
    "ELEMENT_SET_NO": 999,
    "REV_AT_EPOCH": 15929,
    "BSTAR": 0.00011422,
    "MEAN_MOTION_DOT": 1.34e-05,
    "MEAN_MOTION_DDOT": 0.0,
    "TLE_LINE1": "1 54850U 22177AG  25315.30282424  .00001340  00000+0  11422-3 0  9992",
    "TLE_LINE2": "2 54850  43.0044  43.8739 0001448 300.8975  59.1724 15.02550180159293",
    "COMMENT": "Grouped by shell and plane from TLE"
  },
  {
    "OBJECT_NAME": "STARLINK-5084",
    "OBJECT_ID": "22177AH",
    "EPOCH": "2025-11-11T07:20:51.369504",
    "MEAN_MOTION": 15.0253609,
    "ECCENTRICITY": 0.0001085,
    "INCLINATION": 43.0032,
    "RA_OF_ASC_NODE": 43.9023,
    "ARG_OF_PERICENTER": 271.3357,
    "MEAN_ANOMALY": 88.7362,
    "EPHEMERIS_TYPE": 0,
    "CLASSIFICATION_TYPE": "U",
    "NORAD_CAT_ID": 54851,
    "ELEMENT_SET_NO": 999,
    "REV_AT_EPOCH": 15929,
    "BSTAR": 7.727000000000001e-05,
    "MEAN_MOTION_DOT": 8.4e-06,
    "MEAN_MOTION_DDOT": 0.0,
    "TLE_LINE1": "1 54851U 22177AH  25315.30615011  .00000840  00000+0  77270-4 0  9993",
    "TLE_LINE2": "2 54851  43.0032  43.9023 0001085 271.3357  88.7362 15.02536090159291",
    "COMMENT": "Grouped by shell and plane from TLE"
  },
  {
    "OBJECT_NAME": "STARLINK-5418",
    "OBJECT_ID": "22177AJ",
    "EPOCH": "2025-11-11T07:06:28.360512",
    "MEAN_MOTION": 15.02533477,
    "ECCENTRICITY": 0.0001516,
    "INCLINATION": 43.0038,
    "RA_OF_ASC_NODE": 43.8217,
    "ARG_OF_PERICENTER": 270.1081,
    "MEAN_ANOMALY": 89.9588,
    "EPHEMERIS_TYPE": 0,
    "CLASSIFICATION_TYPE": "U",
    "NORAD_CAT_ID": 54852,
    "ELEMENT_SET_NO": 999,
    "REV_AT_EPOCH": 15929,
    "BSTAR": 0.00017196,
    "MEAN_MOTION_DOT": 2.12e-05,
    "MEAN_MOTION_DDOT": 0.0,
    "TLE_LINE1": "1 54852U 22177AJ  25315.29616158  .00002120  00000+0  17196-3 0  9998",
    "TLE_LINE2": "2 54852  43.0038  43.8217 0001516 270.1081  89.9588 15.02533477159291",
    "COMMENT": "Grouped by shell and plane from TLE"
  },
  {
    "OBJECT_NAME": "STARLINK-5427",
    "OBJECT_ID": "22177AK",
    "EPOCH": "2025-11-11T05:35:31.999200",
    "MEAN_MOTION": 15.02542574,
    "ECCENTRICITY": 0.0001368,
    "INCLINATION": 43.0019,
    "RA_OF_ASC_NODE": 44.2123,
    "ARG_OF_PERICENTER": 271.4128,
    "MEAN_ANOMALY": 88.6558,
    "EPHEMERIS_TYPE": 0,
    "CLASSIFICATION_TYPE": "U",
    "NORAD_CAT_ID": 54853,
    "ELEMENT_SET_NO": 999,
    "REV_AT_EPOCH": 15928,
    "BSTAR": 0.00014466000000000001,
    "MEAN_MOTION_DOT": 1.751e-05,
    "MEAN_MOTION_DDOT": 0.0,
    "TLE_LINE1": "1 54853U 22177AK  25315.23300925  .00001751  00000+0  14466-3 0  9991",
    "TLE_LINE2": "2 54853  43.0019  44.2123 0001368 271.4128  88.6558 15.02542574159283",
    "COMMENT": "Grouped by shell and plane from TLE"
  },
  {
    "OBJECT_NAME": "STARLINK-5416",
    "OBJECT_ID": "22177AM",
    "EPOCH": "2025-11-11T07:01:40.772064",
    "MEAN_MOTION": 15.02539733,
    "ECCENTRICITY": 8.06e-05,
    "INCLINATION": 43.0029,
    "RA_OF_ASC_NODE": 43.8025,
    "ARG_OF_PERICENTER": 281.6151,
    "MEAN_ANOMALY": 78.4601,
    "EPHEMERIS_TYPE": 0,
    "CLASSIFICATION_TYPE": "U",
    "NORAD_CAT_ID": 54855,
    "ELEMENT_SET_NO": 999,
    "REV_AT_EPOCH": 15929,
    "BSTAR": 3.2525e-05,
    "MEAN_MOTION_DOT": 2.36e-06,
    "MEAN_MOTION_DDOT": 0.0,
    "TLE_LINE1": "1 54855U 22177AM  25315.29283301  .00000236  00000+0  32525-4 0  9991",
    "TLE_LINE2": "2 54855  43.0029  43.8025 0000806 281.6151  78.4601 15.02539733159297",
    "COMMENT": "Grouped by shell and plane from TLE"
  },
  {
    "OBJECT_NAME": "STARLINK-5086",
    "OBJECT_ID": "22177AN",
    "EPOCH": "2025-11-11T06:32:54.156192",
    "MEAN_MOTION": 15.02543993,
    "ECCENTRICITY": 0.0001339,
    "INCLINATION": 43.0056,
    "RA_OF_ASC_NODE": 43.6521,
    "ARG_OF_PERICENTER": 264.5217,
    "MEAN_ANOMALY": 95.5472,
    "EPHEMERIS_TYPE": 0,
    "CLASSIFICATION_TYPE": "U",
    "NORAD_CAT_ID": 54856,
    "ELEMENT_SET_NO": 999,
    "REV_AT_EPOCH": 15929,
    "BSTAR": 0.00019955,
    "MEAN_MOTION_DOT": 2.493e-05,
    "MEAN_MOTION_DDOT": 0.0,
    "TLE_LINE1": "1 54856U 22177AN  25315.27284903  .00002493  00000+0  19955-3 0  9997",
    "TLE_LINE2": "2 54856  43.0056  43.6521 0001339 264.5217  95.5472 15.02543993159291",
    "COMMENT": "Grouped by shell and plane from TLE"
  },
  {
    "OBJECT_NAME": "STARLINK-5078",
    "OBJECT_ID": "22177AP",
    "EPOCH": "2025-11-11T06:48:53.496000",
    "MEAN_MOTION": 15.02535007,
    "ECCENTRICITY": 0.0001251,
    "INCLINATION": 43.0045,
    "RA_OF_ASC_NODE": 43.7399,
    "ARG_OF_PERICENTER": 268.8766,
    "MEAN_ANOMALY": 91.1933,
    "EPHEMERIS_TYPE": 0,
    "CLASSIFICATION_TYPE": "U",
    "NORAD_CAT_ID": 54857,
    "ELEMENT_SET_NO": 999,
    "REV_AT_EPOCH": 15929,
    "BSTAR": 6.3647e-05,
    "MEAN_MOTION_DOT": 6.56e-06,
    "MEAN_MOTION_DDOT": 0.0,
    "TLE_LINE1": "1 54857U 22177AP  25315.28395250  .00000656  00000+0  63647-4 0  9994",
    "TLE_LINE2": "2 54857  43.0045  43.7399 0001251 268.8766  91.1933 15.02535007159294",
    "COMMENT": "Grouped by shell and plane from TLE"
  },
  {
    "OBJECT_NAME": "STARLINK-5407",
    "OBJECT_ID": "22177AQ",
    "EPOCH": "2025-11-11T06:52:05.286720",
    "MEAN_MOTION": 15.02533978,
    "ECCENTRICITY": 0.0001118,
    "INCLINATION": 43.0019,
    "RA_OF_ASC_NODE": 43.7451,
    "ARG_OF_PERICENTER": 268.1371,
    "MEAN_ANOMALY": 91.9343,
    "EPHEMERIS_TYPE": 0,
    "CLASSIFICATION_TYPE": "U",
    "NORAD_CAT_ID": 54858,
    "ELEMENT_SET_NO": 999,
    "REV_AT_EPOCH": 15929,
    "BSTAR": 8.9709e-06,
    "MEAN_MOTION_DOT": -8.2e-07,
    "MEAN_MOTION_DDOT": 0.0,
    "TLE_LINE1": "1 54858U 22177AQ  25315.28617230 -.00000082  00000+0  89709-5 0  9992",
    "TLE_LINE2": "2 54858  43.0019  43.7451 0001118 268.1371  91.9343 15.02533978159290",
    "COMMENT": "Grouped by shell and plane from TLE"
  },
  {
    "OBJECT_NAME": "STARLINK-5409",
    "OBJECT_ID": "22177AR",
    "EPOCH": "2025-11-11T06:37:41.057760",
    "MEAN_MOTION": 15.02500183,
    "ECCENTRICITY": 6.63e-05,
    "INCLINATION": 43.0042,
    "RA_OF_ASC_NODE": 43.6761,
    "ARG_OF_PERICENTER": 266.7492,
    "MEAN_ANOMALY": 93.3274,
    "EPHEMERIS_TYPE": 0,
    "CLASSIFICATION_TYPE": "U",
    "NORAD_CAT_ID": 54859,
    "ELEMENT_SET_NO": 999,
    "REV_AT_EPOCH": 15929,
    "BSTAR": 0.00091529,
    "MEAN_MOTION_DOT": 0.0001217,
    "MEAN_MOTION_DDOT": 0.0,
    "TLE_LINE1": "1 54859U 22177AR  25315.27616965  .00012170  00000+0  91529-3 0  9997",
    "TLE_LINE2": "2 54859  43.0042  43.6761 0000663 266.7492  93.3274 15.02500183159293",
    "COMMENT": "Grouped by shell and plane from TLE"
  },
  {
    "OBJECT_NAME": "STARLINK-5406",
    "OBJECT_ID": "22177AS",
    "EPOCH": "2025-11-11T06:29:42.614304",
    "MEAN_MOTION": 15.0254247,
    "ECCENTRICITY": 0.0001417,
    "INCLINATION": 43.0059,
    "RA_OF_ASC_NODE": 43.6331,
    "ARG_OF_PERICENTER": 273.5411,
    "MEAN_ANOMALY": 86.527,
    "EPHEMERIS_TYPE": 0,
    "CLASSIFICATION_TYPE": "U",
    "NORAD_CAT_ID": 54860,
    "ELEMENT_SET_NO": 999,
    "REV_AT_EPOCH": 15929,
    "BSTAR": 9.6176e-05,
    "MEAN_MOTION_DOT": 1.096e-05,
    "MEAN_MOTION_DDOT": 0.0,
    "TLE_LINE1": "1 54860U 22177AS  25315.27063211  .00001096  00000+0  96176-4 0  9998",
    "TLE_LINE2": "2 54860  43.0059  43.6331 0001417 273.5411  86.5270 15.02542470159296",
    "COMMENT": "Grouped by shell and plane from TLE"
  },
  {
    "OBJECT_NAME": "STARLINK-5400",
    "OBJECT_ID": "22177AT",
    "EPOCH": "2025-11-11T06:53:41.180352",
    "MEAN_MOTION": 15.02535455,
    "ECCENTRICITY": 0.000112,
    "INCLINATION": 43.0048,
    "RA_OF_ASC_NODE": 43.761,
    "ARG_OF_PERICENTER": 285.6041,
    "MEAN_ANOMALY": 74.4678,
    "EPHEMERIS_TYPE": 0,
    "CLASSIFICATION_TYPE": "U",
    "NORAD_CAT_ID": 54861,
    "ELEMENT_SET_NO": 999,
    "REV_AT_EPOCH": 15929,
    "BSTAR": 8.272600000000001e-05,
    "MEAN_MOTION_DOT": 9.14e-06,
    "MEAN_MOTION_DDOT": 0.0,
    "TLE_LINE1": "1 54861U 22177AT  25315.28728218  .00000914  00000+0  82726-4 0  9999",
    "TLE_LINE2": "2 54861  43.0048  43.7610 0001120 285.6041  74.4678 15.02535455159293",
    "COMMENT": "Grouped by shell and plane from TLE"
  }
]